ARIANE 40 R/B           
1 20443U 90005H   25335.20307897  .00000393  00000+0  13887-3 0  9995
2 20443  98.3259  33.7062 0010955 137.3056 222.8986 14.39784363878634
DELTA 2 R/B(1)          
1 20453U 90008B   25334.72851240  .00038738  00000+0  64683-3 0  9995
2 20453  35.6056  98.0194 0112897  68.6020 292.6715 15.43949878910776
COSMOS 2058             
1 20465U 90010A   25334.96541082  .00004750  00000+0  28815-3 0  9991
2 20465  82.4632 144.6136 0008818 322.4216  37.6396 15.10300869927335
SL-14 R/B               
1 20466U 90010B   25335.14378177  .00000527  00000+0  61161-4 0  9996
2 20466  82.5025 359.9384 0018272 264.1601  95.7531 14.83453924913874
SL-14 R/B               
1 20511U 90018B   25335.26943846  .00000631  00000+0  76373-4 0  9996
2 20511  82.5200 315.0864 0017755  58.9098 301.3855 14.82027400908009
HST                     
1 20580U 90037B   25335.16574123  .00008347  00000+0  29066-3 0  9998
2 20580  28.4702 351.2512 0002118 112.7363 247.3456 15.27796369758224
SL-16 R/B               
1 20625U 90046B   25334.94026936  .00000359  00000+0  20980-3 0  9998
2 20625  70.9973 145.3012 0012053  95.4328 264.8170 14.14996183834425
COSMOS 2084             
1 20663U 90055A   25335.20595051  .00003699  00000+0  27111-3 0  9992
2 20663  62.7910 311.2898 0033537 173.3285 186.8268 15.04902261921490
SL-6 R/B(2)             
1 20666U 90055D   25335.12457566  .00002561  00000+0  20376-3 0  9997
2 20666  62.7832 228.8793 0011710 299.7016  60.2917 15.02991899923375
SL-8 R/B                
1 20775U 90078B   25335.28100401  .00031338  00000+0  97058-3 0  9998
2 20775  82.9048 339.5625 0375788 344.4116  14.5770 14.85206431794679
SL-8 R/B                
1 21088U 91006B   25335.22029196  .00000082  00000+0  66802-4 0  9999
2 21088  82.9428 243.2805 0021610 313.8660 200.1717 13.77488060750515
OKEAN-3                 
1 21397U 91039A   25335.23925829  .00004049  00000+0  29073-3 0  9992
2 21397  82.5182  72.1769 0013394 307.8651  52.1363 15.03999388850235
