CCSDS_OMM_VERS = 2.0
CREATION_DATE  = 
ORIGINATOR     = 

OBJECT_NAME    = ARIANE 40 R/B
OBJECT_ID      = 1990-005H
CENTER_NAME    = EARTH
REF_FRAME      = TEME
TIME_SYSTEM    = UTC
MEAN_ELEMENT_THEORY = SGP/SGP4

EPOCH          = 2025-12-01T04:52:26.023008
MEAN_MOTION    = 14.39784363
ECCENTRICITY   = .00109554
INCLINATION    = 98.3259
RA_OF_ASC_NODE = 33.7062
ARG_OF_PERICENTER = 137.3056
MEAN_ANOMALY   = 222.8986

EPHEMERIS_TYPE = 0
CLASSIFICATION_TYPE = U
NORAD_CAT_ID   = 20443
ELEMENT_SET_NO = 999
REV_AT_EPOCH   = 87863
BSTAR          = .13886732E-3
MEAN_MOTION_DOT = .393E-5
MEAN_MOTION_DDOT = 0

CCSDS_OMM_VERS = 2.0
CREATION_DATE  = 
ORIGINATOR     = 

OBJECT_NAME    = DELTA 2 R/B(1)
OBJECT_ID      = 1990-008B
CENTER_NAME    = EARTH
REF_FRAME      = TEME
TIME_SYSTEM    = UTC
MEAN_ELEMENT_THEORY = SGP/SGP4

EPOCH          = 2025-11-30T17:29:03.471360
MEAN_MOTION    = 15.43949878
ECCENTRICITY   = .01128971
INCLINATION    = 35.6056
RA_OF_ASC_NODE = 98.0194
ARG_OF_PERICENTER = 68.6020
MEAN_ANOMALY   = 292.6715

EPHEMERIS_TYPE = 0
CLASSIFICATION_TYPE = U
NORAD_CAT_ID   = 20453
ELEMENT_SET_NO = 999
REV_AT_EPOCH   = 91077
BSTAR          = .64683245E-3
MEAN_MOTION_DOT = .38738E-3
MEAN_MOTION_DDOT = 0

CCSDS_OMM_VERS = 2.0
CREATION_DATE  = 
ORIGINATOR     = 

OBJECT_NAME    = COSMOS 2058
OBJECT_ID      = 1990-010A
CENTER_NAME    = EARTH
REF_FRAME      = TEME
TIME_SYSTEM    = UTC
MEAN_ELEMENT_THEORY = SGP/SGP4

EPOCH          = 2025-11-30T23:10:11.494848
MEAN_MOTION    = 15.10300869
ECCENTRICITY   = .00088185
INCLINATION    = 82.4632
RA_OF_ASC_NODE = 144.6136
ARG_OF_PERICENTER = 322.4216
MEAN_ANOMALY   = 37.6396

EPHEMERIS_TYPE = 0
CLASSIFICATION_TYPE = U
NORAD_CAT_ID   = 20465
ELEMENT_SET_NO = 999
REV_AT_EPOCH   = 92733
BSTAR          = .28814604E-3
MEAN_MOTION_DOT = .475E-4
MEAN_MOTION_DDOT = 0

CCSDS_OMM_VERS = 2.0
CREATION_DATE  = 
ORIGINATOR     = 

OBJECT_NAME    = SL-14 R/B
OBJECT_ID      = 1990-010B
CENTER_NAME    = EARTH
REF_FRAME      = TEME
TIME_SYSTEM    = UTC
MEAN_ELEMENT_THEORY = SGP/SGP4

EPOCH          = 2025-12-01T03:27:02.744928
MEAN_MOTION    = 14.83453924
ECCENTRICITY   = .00182729
INCLINATION    = 82.5025
RA_OF_ASC_NODE = 359.9384
ARG_OF_PERICENTER = 264.1601
MEAN_ANOMALY   = 95.7531

EPHEMERIS_TYPE = 0
CLASSIFICATION_TYPE = U
NORAD_CAT_ID   = 20466
ELEMENT_SET_NO = 999
REV_AT_EPOCH   = 91387
BSTAR          = .61161127E-4
MEAN_MOTION_DOT = .527E-5
MEAN_MOTION_DDOT = 0

CCSDS_OMM_VERS = 2.0
CREATION_DATE  = 
ORIGINATOR     = 

OBJECT_NAME    = SL-14 R/B
OBJECT_ID      = 1990-018B
CENTER_NAME    = EARTH
REF_FRAME      = TEME
TIME_SYSTEM    = UTC
MEAN_ELEMENT_THEORY = SGP/SGP4

EPOCH          = 2025-12-01T06:27:59.482944
MEAN_MOTION    = 14.82027400
ECCENTRICITY   = .00177556
INCLINATION    = 82.5200
RA_OF_ASC_NODE = 315.0864
ARG_OF_PERICENTER = 58.9098
MEAN_ANOMALY   = 301.3855

EPHEMERIS_TYPE = 0
CLASSIFICATION_TYPE = U
NORAD_CAT_ID   = 20511
ELEMENT_SET_NO = 999
REV_AT_EPOCH   = 90800
BSTAR          = .76372539E-4
MEAN_MOTION_DOT = .631E-5
MEAN_MOTION_DDOT = 0

CCSDS_OMM_VERS = 2.0
CREATION_DATE  = 
ORIGINATOR     = 

OBJECT_NAME    = HST
OBJECT_ID      = 1990-037B
CENTER_NAME    = EARTH
REF_FRAME      = TEME
TIME_SYSTEM    = UTC
MEAN_ELEMENT_THEORY = SGP/SGP4

EPOCH          = 2025-12-01T03:58:40.042272
MEAN_MOTION    = 15.27796369
ECCENTRICITY   = .00021187
INCLINATION    = 28.4702
RA_OF_ASC_NODE = 351.2512
ARG_OF_PERICENTER = 112.7363
MEAN_ANOMALY   = 247.3456

EPHEMERIS_TYPE = 0
CLASSIFICATION_TYPE = U
NORAD_CAT_ID   = 20580
ELEMENT_SET_NO = 999
REV_AT_EPOCH   = 75822
BSTAR          = .29065872E-3
MEAN_MOTION_DOT = .8347E-4
MEAN_MOTION_DDOT = 0

CCSDS_OMM_VERS = 2.0
CREATION_DATE  = 
ORIGINATOR     = 

OBJECT_NAME    = SL-16 R/B
OBJECT_ID      = 1990-046B
CENTER_NAME    = EARTH
REF_FRAME      = TEME
TIME_SYSTEM    = UTC
MEAN_ELEMENT_THEORY = SGP/SGP4

EPOCH          = 2025-11-30T22:33:59.272704
MEAN_MOTION    = 14.14996183
ECCENTRICITY   = .00120537
INCLINATION    = 70.9973
RA_OF_ASC_NODE = 145.3012
ARG_OF_PERICENTER = 95.4328
MEAN_ANOMALY   = 264.8170

EPHEMERIS_TYPE = 0
CLASSIFICATION_TYPE = U
NORAD_CAT_ID   = 20625
ELEMENT_SET_NO = 999
REV_AT_EPOCH   = 83442
BSTAR          = .20979603E-3
MEAN_MOTION_DOT = .359E-5
MEAN_MOTION_DDOT = 0

CCSDS_OMM_VERS = 2.0
CREATION_DATE  = 
ORIGINATOR     = 

OBJECT_NAME    = COSMOS 2084
OBJECT_ID      = 1990-055A
CENTER_NAME    = EARTH
REF_FRAME      = TEME
TIME_SYSTEM    = UTC
MEAN_ELEMENT_THEORY = SGP/SGP4

EPOCH          = 2025-12-01T04:56:34.124064
MEAN_MOTION    = 15.04902261
ECCENTRICITY   = .00335379
INCLINATION    = 62.7910
RA_OF_ASC_NODE = 311.2898
ARG_OF_PERICENTER = 173.3285
MEAN_ANOMALY   = 186.8268

EPHEMERIS_TYPE = 0
CLASSIFICATION_TYPE = U
NORAD_CAT_ID   = 20663
ELEMENT_SET_NO = 999
REV_AT_EPOCH   = 92149
BSTAR          = .2711138E-3
MEAN_MOTION_DOT = .3699E-4
MEAN_MOTION_DDOT = 0

CCSDS_OMM_VERS = 2.0
CREATION_DATE  = 
ORIGINATOR     = 

OBJECT_NAME    = SL-6 R/B(2)
OBJECT_ID      = 1990-055D
CENTER_NAME    = EARTH
REF_FRAME      = TEME
TIME_SYSTEM    = UTC
MEAN_ELEMENT_THEORY = SGP/SGP4

EPOCH          = 2025-12-01T02:59:23.337024
MEAN_MOTION    = 15.02991899
ECCENTRICITY   = .00117105
INCLINATION    = 62.7832
RA_OF_ASC_NODE = 228.8793
ARG_OF_PERICENTER = 299.7016
MEAN_ANOMALY   = 60.2917

EPHEMERIS_TYPE = 0
CLASSIFICATION_TYPE = U
NORAD_CAT_ID   = 20666
ELEMENT_SET_NO = 999
REV_AT_EPOCH   = 92337
BSTAR          = .20375907E-3
MEAN_MOTION_DOT = .2561E-4
MEAN_MOTION_DDOT = 0

CCSDS_OMM_VERS = 2.0
CREATION_DATE  = 
ORIGINATOR     = 

OBJECT_NAME    = SL-8 R/B
OBJECT_ID      = 1990-078B
CENTER_NAME    = EARTH
REF_FRAME      = TEME
TIME_SYSTEM    = UTC
MEAN_ELEMENT_THEORY = SGP/SGP4

EPOCH          = 2025-12-01T06:44:38.746464
MEAN_MOTION    = 14.85206431
ECCENTRICITY   = .03757883
INCLINATION    = 82.9048
RA_OF_ASC_NODE = 339.5625
ARG_OF_PERICENTER = 344.4116
MEAN_ANOMALY   = 14.5770

EPHEMERIS_TYPE = 0
CLASSIFICATION_TYPE = U
NORAD_CAT_ID   = 20775
ELEMENT_SET_NO = 999
REV_AT_EPOCH   = 79467
BSTAR          = .97057727E-3
MEAN_MOTION_DOT = .31338E-3
MEAN_MOTION_DDOT = 0

CCSDS_OMM_VERS = 2.0
CREATION_DATE  = 
ORIGINATOR     = 

OBJECT_NAME    = SL-8 R/B
OBJECT_ID      = 1991-006B
CENTER_NAME    = EARTH
REF_FRAME      = TEME
TIME_SYSTEM    = UTC
MEAN_ELEMENT_THEORY = SGP/SGP4

EPOCH          = 2025-12-01T05:17:13.225344
MEAN_MOTION    = 13.77488060
ECCENTRICITY   = .00216106
INCLINATION    = 82.9428
RA_OF_ASC_NODE = 243.2805
ARG_OF_PERICENTER = 313.8660
MEAN_ANOMALY   = 200.1717

EPHEMERIS_TYPE = 0
CLASSIFICATION_TYPE = U
NORAD_CAT_ID   = 21088
ELEMENT_SET_NO = 999
REV_AT_EPOCH   = 75051
BSTAR          = .66802421E-4
MEAN_MOTION_DOT = .82E-6
MEAN_MOTION_DDOT = 0

CCSDS_OMM_VERS = 2.0
CREATION_DATE  = 
ORIGINATOR     = 

OBJECT_NAME    = OKEAN-3
OBJECT_ID      = 1991-039A
CENTER_NAME    = EARTH
REF_FRAME      = TEME
TIME_SYSTEM    = UTC
MEAN_ELEMENT_THEORY = SGP/SGP4

EPOCH          = 2025-12-01T05:44:31.916256
MEAN_MOTION    = 15.03999388
ECCENTRICITY   = .00133946
INCLINATION    = 82.5182
RA_OF_ASC_NODE = 72.1769
ARG_OF_PERICENTER = 307.8651
MEAN_ANOMALY   = 52.1363

EPHEMERIS_TYPE = 0
CLASSIFICATION_TYPE = U
NORAD_CAT_ID   = 21397
ELEMENT_SET_NO = 999
REV_AT_EPOCH   = 85023
BSTAR          = .29072919E-3
MEAN_MOTION_DOT = .4049E-4
MEAN_MOTION_DDOT = 0

